[{"OBJECT_NAME":"OCO 2","OBJECT_ID":"2014-035A","EPOCH":"2026-04-25T19:53:21.414048","MEAN_MOTION":14.57144799,"ECCENTRICITY":0.0001617,"INCLINATION":98.1988,"RA_OF_ASC_NODE":57.93,"ARG_OF_PERICENTER":79.9148,"MEAN_ANOMALY":280.2233,"EPHEMERIS_TYPE":0,"CLASSIFICATION_TYPE":"U","NORAD_CAT_ID":40059,"ELEMENT_SET_NO":999,"REV_AT_EPOCH":62842,"BSTAR":8.8953e-5,"MEAN_MOTION_DOT":3.56e-6,"MEAN_MOTION_DDOT":0},{"OBJECT_NAME":"BRITE-PL2 (HEWELIUSZ)","OBJECT_ID":"2014-049B","EPOCH":"2026-04-25T19:32:53.697696","MEAN_MOTION":14.94395026,"ECCENTRICITY":0.0012694,"INCLINATION":97.9036,"RA_OF_ASC_NODE":227.4367,"ARG_OF_PERICENTER":284.7952,"MEAN_ANOMALY":75.1861,"EPHEMERIS_TYPE":0,"CLASSIFICATION_TYPE":"U","NORAD_CAT_ID":40119,"ELEMENT_SET_NO":999,"REV_AT_EPOCH":63362,"BSTAR":0.00016269,"MEAN_MOTION_DOT":1.694e-5,"MEAN_MOTION_DDOT":0},{"OBJECT_NAME":"MMS 1","OBJECT_ID":"2015-011A","EPOCH":"2026-04-25T22:00:01.998720","MEAN_MOTION":0.28188796,"ECCENTRICITY":0.8368033,"INCLINATION":71.4225,"RA_OF_ASC_NODE":349.485,"ARG_OF_PERICENTER":166.3956,"MEAN_ANOMALY":6.2732,"EPHEMERIS_TYPE":0,"CLASSIFICATION_TYPE":"U","NORAD_CAT_ID":40482,"ELEMENT_SET_NO":999,"REV_AT_EPOCH":135,"BSTAR":0,"MEAN_MOTION_DOT":-7.13e-6,"MEAN_MOTION_DDOT":0},{"OBJECT_NAME":"MMS 2","OBJECT_ID":"2015-011B","EPOCH":"2026-04-25T22:00:01.998720","MEAN_MOTION":0.28183039,"ECCENTRICITY":0.8369091,"INCLINATION":71.4227,"RA_OF_ASC_NODE":349.4871,"ARG_OF_PERICENTER":166.4017,"MEAN_ANOMALY":6.2574,"EPHEMERIS_TYPE":0,"CLASSIFICATION_TYPE":"U","NORAD_CAT_ID":40483,"ELEMENT_SET_NO":999,"REV_AT_EPOCH":135,"BSTAR":0,"MEAN_MOTION_DOT":-7.13e-6,"MEAN_MOTION_DDOT":0},{"OBJECT_NAME":"MMS 3","OBJECT_ID":"2015-011C","EPOCH":"2026-04-25T22:00:01.998720","MEAN_MOTION":0.28183068,"ECCENTRICITY":0.8368322,"INCLINATION":71.4255,"RA_OF_ASC_NODE":349.4917,"ARG_OF_PERICENTER":166.396,"MEAN_ANOMALY":6.2595,"EPHEMERIS_TYPE":0,"CLASSIFICATION_TYPE":"U","NORAD_CAT_ID":40484,"ELEMENT_SET_NO":999,"REV_AT_EPOCH":135,"BSTAR":0,"MEAN_MOTION_DOT":-7.13e-6,"MEAN_MOTION_DDOT":0},{"OBJECT_NAME":"MMS 4","OBJECT_ID":"2015-011D","EPOCH":"2026-04-25T22:00:01.998720","MEAN_MOTION":0.28182568,"ECCENTRICITY":0.8367895,"INCLINATION":71.4225,"RA_OF_ASC_NODE":349.4871,"ARG_OF_PERICENTER":166.4038,"MEAN_ANOMALY":6.2469,"EPHEMERIS_TYPE":0,"CLASSIFICATION_TYPE":"U","NORAD_CAT_ID":40485,"ELEMENT_SET_NO":999,"REV_AT_EPOCH":135,"BSTAR":0,"MEAN_MOTION_DOT":-7.13e-6,"MEAN_MOTION_DDOT":0},{"OBJECT_NAME":"ASTROSAT","OBJECT_ID":"2015-052A","EPOCH":"2026-04-22T07:40:32.970720","MEAN_MOTION":14.82404932,"ECCENTRICITY":0.00084052,"INCLINATION":5.9962,"RA_OF_ASC_NODE":197.455,"ARG_OF_PERICENTER":315.179,"MEAN_ANOMALY":44.7659,"EPHEMERIS_TYPE":0,"CLASSIFICATION_TYPE":"U","NORAD_CAT_ID":40930,"ELEMENT_SET_NO":999,"REV_AT_EPOCH":57152,"BSTAR":9.2059685e-5,"MEAN_MOTION_DOT":1.425e-5,"MEAN_MOTION_DDOT":0},{"OBJECT_NAME":"DAMPE","OBJECT_ID":"2015-078A","EPOCH":"2026-04-25T20:55:03.819072","MEAN_MOTION":15.30648729,"ECCENTRICITY":0.0010219,"INCLINATION":97.458,"RA_OF_ASC_NODE":121.0851,"ARG_OF_PERICENTER":261.8533,"MEAN_ANOMALY":98.1549,"EPHEMERIS_TYPE":0,"CLASSIFICATION_TYPE":"U","NORAD_CAT_ID":41173,"ELEMENT_SET_NO":999,"REV_AT_EPOCH":57654,"BSTAR":3.7809e-5,"MEAN_MOTION_DOT":1.043e-5,"MEAN_MOTION_DDOT":0},{"OBJECT_NAME":"PISAT","OBJECT_ID":"2016-059B","EPOCH":"2026-04-25T13:22:21.417312","MEAN_MOTION":14.68884162,"ECCENTRICITY":0.0029464,"INCLINATION":97.819,"RA_OF_ASC_NODE":118.2753,"ARG_OF_PERICENTER":16.7333,"MEAN_ANOMALY":343.4839,"EPHEMERIS_TYPE":0,"CLASSIFICATION_TYPE":"U","NORAD_CAT_ID":41784,"ELEMENT_SET_NO":999,"REV_AT_EPOCH":51201,"BSTAR":0.0001642,"MEAN_MOTION_DOT":9.19e-6,"MEAN_MOTION_DDOT":0},{"OBJECT_NAME":"HXMT (HUIYAN)","OBJECT_ID":"2017-034A","EPOCH":"2026-04-25T19:57:41.904864","MEAN_MOTION":15.17990105,"ECCENTRICITY":0.0031407,"INCLINATION":43.0133,"RA_OF_ASC_NODE":114.4605,"ARG_OF_PERICENTER":175.673,"MEAN_ANOMALY":184.4395,"EPHEMERIS_TYPE":0,"CLASSIFICATION_TYPE":"U","NORAD_CAT_ID":42758,"ELEMENT_SET_NO":999,"REV_AT_EPOCH":48970,"BSTAR":0.00017161,"MEAN_MOTION_DOT":3.352e-5,"MEAN_MOTION_DDOT":0},{"OBJECT_NAME":"FLYING LAPTOP","OBJECT_ID":"2017-042G","EPOCH":"2026-04-25T20:28:24.582720","MEAN_MOTION":15.00808344,"ECCENTRICITY":0.0018205,"INCLINATION":97.4455,"RA_OF_ASC_NODE":273.4871,"ARG_OF_PERICENTER":304.0734,"MEAN_ANOMALY":55.8762,"EPHEMERIS_TYPE":0,"CLASSIFICATION_TYPE":"U","NORAD_CAT_ID":42831,"ELEMENT_SET_NO":999,"REV_AT_EPOCH":47860,"BSTAR":0.00022978,"MEAN_MOTION_DOT":2.87e-5,"MEAN_MOTION_DDOT":0},{"OBJECT_NAME":"ZHANGHENG 1-01 (CSES-1)","OBJECT_ID":"2018-015C","EPOCH":"2026-04-25T19:56:46.742784","MEAN_MOTION":15.20650477,"ECCENTRICITY":0.0017959,"INCLINATION":97.6829,"RA_OF_ASC_NODE":280.4614,"ARG_OF_PERICENTER":86.7206,"MEAN_ANOMALY":273.6083,"EPHEMERIS_TYPE":0,"CLASSIFICATION_TYPE":"U","NORAD_CAT_ID":43194,"ELEMENT_SET_NO":999,"REV_AT_EPOCH":45668,"BSTAR":0.00038086,"MEAN_MOTION_DOT":8.325e-5,"MEAN_MOTION_DDOT":0},{"OBJECT_NAME":"SALSAT","OBJECT_ID":"2020-068K","EPOCH":"2026-04-25T17:43:34.869792","MEAN_MOTION":15.29000493,"ECCENTRICITY":0.001152,"INCLINATION":97.8866,"RA_OF_ASC_NODE":115.6436,"ARG_OF_PERICENTER":121.8273,"MEAN_ANOMALY":238.4089,"EPHEMERIS_TYPE":0,"CLASSIFICATION_TYPE":"U","NORAD_CAT_ID":46495,"ELEMENT_SET_NO":999,"REV_AT_EPOCH":30734,"BSTAR":0.00030336,"MEAN_MOTION_DOT":8.478e-5,"MEAN_MOTION_DDOT":0},{"OBJECT_NAME":"IXPE","OBJECT_ID":"2021-121A","EPOCH":"2026-04-25T20:00:01.000224","MEAN_MOTION":15.0974351,"ECCENTRICITY":0.0007333,"INCLINATION":0.2303,"RA_OF_ASC_NODE":353.2713,"ARG_OF_PERICENTER":9.1008,"MEAN_ANOMALY":39.3158,"EPHEMERIS_TYPE":0,"CLASSIFICATION_TYPE":"U","NORAD_CAT_ID":49954,"ELEMENT_SET_NO":999,"REV_AT_EPOCH":552,"BSTAR":0.00086709,"MEAN_MOTION_DOT":0.00015366,"MEAN_MOTION_DDOT":0}]
